{"type": "FeatureCollection", "features": [ {"type": "Feature", "properties": {"norad_id": 32289, "name": "YAOGAN-3", "group": "resource", "lat": -62.794913371983746, "lon": 176.08131249833423, "alt_km": 606.5517225431458, "timestamp": "2025-12-10T23:33:12.483416+00:00", "meta": {"OBJECT_NAME": "YAOGAN-3", "OBJECT_ID": "2007-055A", "EPOCH": "2025-12-10T14:24:10.550304", "MEAN_MOTION": 14.89840399, "ECCENTRICITY": 0.00013381, "INCLINATION": 97.8364, "RA_OF_ASC_NODE": 11.2442, "ARG_OF_PERICENTER": 72.3532, "MEAN_ANOMALY": 287.7832, "EPHEMERIS_TYPE": 0, "CLASSIFICATION_TYPE": "U", "NORAD_CAT_ID": 32289, "ELEMENT_SET_NO": 999, "REV_AT_EPOCH": 97777, "BSTAR": 0.0004033879, "MEAN_MOTION_DOT": 3.819e-05, "MEAN_MOTION_DDOT": 0}, "tle": {"line1": "1 32289U 07055A   25344.60012211  .00003819  00000+0  40339-3 0  9994", "line2": "2 32289  97.8364  11.2442 0001338  72.3532 287.7832 14.89840399977773"}}, "geometry": {"type": "Point", "coordinates": [176.08131249833423, -62.794913371983746]}}, {"type": "Feature", "properties": {"norad_id": 32376, "name": "COSMO-SKYMED 2", "group": "resource", "lat": -31.255192337207927, "lon": -18.49126233161121, "alt_km": 629.217376293399, "timestamp": "2025-12-10T23:33:12.483429+00:00", "meta": {"OBJECT_NAME": "COSMO-SKYMED 2", "OBJECT_ID": "2007-059A", "EPOCH": "2025-12-10T14:30:04.080960", "MEAN_MOTION": 14.82162245, "ECCENTRICITY": 0.00015284, "INCLINATION": 97.8812, "RA_OF_ASC_NODE": 165.9601, "ARG_OF_PERICENTER": 85.2862, "MEAN_ANOMALY": 274.8526, "EPHEMERIS_TYPE": 0, "CLASSIFICATION_TYPE": "U", "NORAD_CAT_ID": 32376, "ELEMENT_SET_NO": 999, "REV_AT_EPOCH": 97406, "BSTAR": 0.00012481377, "MEAN_MOTION_DOT": 9.42e-06, "MEAN_MOTION_DDOT": 0}, "tle": {"line1": "1 32376U 07059A   25344.60421390  .00000942  00000+0  12481-3 0  9998", "line2": "2 32376  97.8812 165.9601 0001528  85.2862 274.8526 14.82162245974068"}}, "geometry": {"type": "Point", "coordinates": [-18.49126233161121, -31.255192337207927]}}, {"type": "Feature", "properties": {"norad_id": 32382, "name": "RADARSAT-2", "group": "resource", "lat": 49.035643058024164, "lon": 179.61061572050428, "alt_km": 786.7657557948423, "timestamp": "2025-12-10T23:33:12.483439+00:00", "meta": {"OBJECT_NAME": "RADARSAT-2", "OBJECT_ID": "2007-061A", "EPOCH": "2025-12-10T14:33:01.924992", "MEAN_MOTION": 14.29980558, "ECCENTRICITY": 0.00011169, "INCLINATION": 98.5797, "RA_OF_ASC_NODE": 349.2269, "ARG_OF_PERICENTER": 86.1369, "MEAN_ANOMALY": 273.9941, "EPHEMERIS_TYPE": 0, "CLASSIFICATION_TYPE": "U", "NORAD_CAT_ID": 32382, "ELEMENT_SET_NO": 999, "REV_AT_EPOCH": 93900, "BSTAR": -4.66485e-06, "MEAN_MOTION_DOT": -5.6e-07, "MEAN_MOTION_DDOT": 0}, "tle": {"line1": "1 32382U 07061A   25344.60627228 -.00000056  00000+0 -46648-5 0  9998", "line2": "2 32382  98.5797 349.2269 0001116  86.1369 273.9941 14.29980558939009"}}, "geometry": {"type": "Point", "coordinates": [179.61061572050428, 49.035643058024164]}}, {"type": "Feature", "properties": {"norad_id": 32783, "name": "CARTOSAT-2A", "group": "resource", "lat": 11.354984391807735, "lon": 33.28351237941906, "alt_km": 625.6280487534623, "timestamp": "2025-12-10T23:33:12.483448+00:00", "meta": {"OBJECT_NAME": "CARTOSAT-2A", "OBJECT_ID": "2008-021A", "EPOCH": "2025-12-10T13:45:33.221952", "MEAN_MOTION": 14.78931405, "ECCENTRICITY": 0.00121192, "INCLINATION": 97.7928, "RA_OF_ASC_NODE": 34.4641, "ARG_OF_PERICENTER": 11.4664, "MEAN_ANOMALY": 348.6822, "EPHEMERIS_TYPE": 0, "CLASSIFICATION_TYPE": "U", "NORAD_CAT_ID": 32783, "ELEMENT_SET_NO": 999, "REV_AT_EPOCH": 95092, "BSTAR": 0.00022586277, "MEAN_MOTION_DOT": 1.617e-05, "MEAN_MOTION_DDOT": 0}, "tle": {"line1": "1 32783U 08021A   25344.57330118  .00001617  00000+0  22586-3 0  9990", "line2": "2 32783  97.7928  34.4641 0012119  11.4664 348.6822 14.78931405950925"}}, "geometry": {"type": "Point", "coordinates": [33.28351237941906, 11.354984391807735]}}, {"type": "Feature", "properties": {"norad_id": 33320, "name": "HUANJING 1A (HJ-1A)", "group": "resource", "lat": -28.68474887357233, "lon": 149.13353958390184, "alt_km": 638.5094596049594, "timestamp": "2025-12-10T23:33:12.483457+00:00", "meta": {"OBJECT_NAME": "HUANJING 1A (HJ-1A)", "OBJECT_ID": "2008-041A", "EPOCH": "2025-12-10T14:31:15.950208", "MEAN_MOTION": 14.83383381, "ECCENTRICITY": 0.00203198, "INCLINATION": 97.6545, "RA_OF_ASC_NODE": 332.9927, "ARG_OF_PERICENTER": 41.2682, "MEAN_ANOMALY": 319.0064, "EPHEMERIS_TYPE": 0, "CLASSIFICATION_TYPE": "U", "NORAD_CAT_ID": 33320, "ELEMENT_SET_NO": 999, "REV_AT_EPOCH": 93044, "BSTAR": 0.00028518023, "MEAN_MOTION_DOT": 2.296e-05, "MEAN_MOTION_DDOT": 0}, "tle": {"line1": "1 33320U 08041A   25344.60504572  .00002296  00000+0  28518-3 0  9996", "line2": "2 33320  97.6545 332.9927 0020319  41.2682 319.0064 14.83383381930447"}}, "geometry": {"type": "Point", "coordinates": [149.13353958390184, -28.68474887357233]}}, {"type": "Feature", "properties": {"norad_id": 33321, "name": "HUANJING 1B (HJ-1B)", "group": "resource", "lat": 71.81413192568539, "lon": -47.06315816325794, "alt_km": 586.9842723805914, "timestamp": "2025-12-10T23:33:12.483467+00:00", "meta": {"OBJECT_NAME": "HUANJING 1B (HJ-1B)", "OBJECT_ID": "2008-041B", "EPOCH": "2025-12-10T15:07:38.760672", "MEAN_MOTION": 14.82812326, "ECCENTRICITY": 0.00382813, "INCLINATION": 97.6402, "RA_OF_ASC_NODE": 336.719, "ARG_OF_PERICENTER": 82.2476, "MEAN_ANOMALY": 278.3082, "EPHEMERIS_TYPE": 0, "CLASSIFICATION_TYPE": "U", "NORAD_CAT_ID": 33321, "ELEMENT_SET_NO": 999, "REV_AT_EPOCH": 93046, "BSTAR": 0.00023071337, "MEAN_MOTION_DOT": 1.839e-05, "MEAN_MOTION_DDOT": 0}, "tle": {"line1": "1 33321U 08041B   25344.63030973  .00001839  00000+0  23071-3 0  9990", "line2": "2 33321  97.6402 336.7190 0038281  82.2476 278.3082 14.82812326930461"}}, "geometry": {"type": "Point", "coordinates": [-47.06315816325794, 71.81413192568539]}}, {"type": "Feature", "properties": {"norad_id": 33331, "name": "GEOEYE 1", "group": "resource", "lat": 6.354738143135248, "lon": -122.80426471400331, "alt_km": 680.522503557374, "timestamp": "2025-12-10T23:33:12.483476+00:00", "meta": {"OBJECT_NAME": "GEOEYE 1", "OBJECT_ID": "2008-042A", "EPOCH": "2025-12-10T14:34:00.179328", "MEAN_MOTION": 14.64808231, "ECCENTRICITY": 0.00027484, "INCLINATION": 98.1255, "RA_OF_ASC_NODE": 55.9143, "ARG_OF_PERICENTER": 286.0097, "MEAN_ANOMALY": 74.0803, "EPHEMERIS_TYPE": 0, "CLASSIFICATION_TYPE": "U", "NORAD_CAT_ID": 33331, "ELEMENT_SET_NO": 999, "REV_AT_EPOCH": 92254, "BSTAR": 0.00019843942, "MEAN_MOTION_DOT": 1.011e-05, "MEAN_MOTION_DDOT": 0}, "tle": {"line1": "1 33331U 08042A   25344.60694652  .00001011  00000+0  19844-3 0  9994", "line2": "2 33331  98.1255  55.9143 0002748 286.0097  74.0803 14.64808231922546"}}, "geometry": {"type": "Point", "coordinates": [-122.80426471400331, 6.354738143135248]}}, {"type": "Feature", "properties": {"norad_id": 33396, "name": "THEOS", "group": "resource", "lat": -46.5229389862969, "lon": 52.29131977167479, "alt_km": 832.3840536761372, "timestamp": "2025-12-10T23:33:12.483486+00:00", "meta": {"OBJECT_NAME": "THEOS", "OBJECT_ID": "2008-049A", "EPOCH": "2025-12-10T15:19:13.802016", "MEAN_MOTION": 14.20097285, "ECCENTRICITY": 0.00011226, "INCLINATION": 98.5865, "RA_OF_ASC_NODE": 42.7896, "ARG_OF_PERICENTER": 93.8854, "MEAN_ANOMALY": 266.2451, "EPHEMERIS_TYPE": 0, "CLASSIFICATION_TYPE": "U", "NORAD_CAT_ID": 33396, "ELEMENT_SET_NO": 999, "REV_AT_EPOCH": 89120, "BSTAR": 0.00024288102, "MEAN_MOTION_DOT": 4.75e-06, "MEAN_MOTION_DDOT": 0}, "tle": {"line1": "1 33396U 08049A   25344.63835419  .00000475  00000+0  24288-3 0  9994", "line2": "2 33396  98.5865  42.7896 0001122  93.8854 266.2451 14.20097285891200"}}, "geometry": {"type": "Point", "coordinates": [52.29131977167479, -46.5229389862969]}}, {"type": "Feature", "properties": {"norad_id": 33412, "name": "COSMO-SKYMED 3", "group": "resource", "lat": -41.18282284917057, "lon": 8.413488225230767, "alt_km": 548.8543500988408, "timestamp": "2025-12-10T23:33:12.483495+00:00", "meta": {"OBJECT_NAME": "COSMO-SKYMED 3", "OBJECT_ID": "2008-054A", "EPOCH": "2025-12-10T14:35:45.552768", "MEAN_MOTION": 15.05319334, "ECCENTRICITY": 0.00159017, "INCLINATION": 97.8462, "RA_OF_ASC_NODE": 194.9637, "ARG_OF_PERICENTER": 181.3658, "MEAN_ANOMALY": 178.7527, "EPHEMERIS_TYPE": 0, "CLASSIFICATION_TYPE": "U", "NORAD_CAT_ID": 33412, "ELEMENT_SET_NO": 999, "REV_AT_EPOCH": 92855, "BSTAR": 0.00042978233, "MEAN_MOTION_DOT": 6.104e-05, "MEAN_MOTION_DDOT": 0}, "tle": {"line1": "1 33412U 08054A   25344.60816612  .00006104  00000+0  42978-3 0  9991", "line2": "2 33412  97.8462 194.9637 0015901 181.3658 178.7527 15.05319334928558"}}, "geometry": {"type": "Point", "coordinates": [8.413488225230767, -41.18282284917057]}}, {"type": "Feature", "properties": {"norad_id": 33446, "name": "YAOGAN-4", "group": "resource", "lat": -13.935379774689524, "lon": -82.92317378677983, "alt_km": 616.3011302184559, "timestamp": "2025-12-10T23:33:12.483504+00:00", "meta": {"OBJECT_NAME": "YAOGAN-4", "OBJECT_ID": "2008-061A", "EPOCH": "2025-12-10T09:02:22.074432", "MEAN_MOTION": 14.82671071, "ECCENTRICITY": 0.00137719, "INCLINATION": 97.918, "RA_OF_ASC_NODE": 274.4991, "ARG_OF_PERICENTER": 331.4072, "MEAN_ANOMALY": 28.6385, "EPHEMERIS_TYPE": 0, "CLASSIFICATION_TYPE": "U", "NORAD_CAT_ID": 33446, "ELEMENT_SET_NO": 999, "REV_AT_EPOCH": 91768, "BSTAR": 0.00031259873, "MEAN_MOTION_DOT": 2.471e-05, "MEAN_MOTION_DDOT": 0}, "tle": {"line1": "1 33446U 08061A   25344.37664438  .00002471  00000+0  31260-3 0  9992", "line2": "2 33446  97.9180 274.4991 0013771 331.4072  28.6385 14.82671071917681"}}, "geometry": {"type": "Point", "coordinates": [-82.92317378677983, -13.935379774689524]}}]}